{
  "type": "FeatureCollection",
  "features": [
    {
      "type": "Feature",
      "properties": {
        "norad_id": 66690,
        "name": "TRANSPORTER-15 AA",
        "group": "last-30-days",
        "lat": -21.73565688315443,
        "lon": -117.65341046308627,
        "alt_km": 519.1418102658472,
        "timestamp": "2025-12-19T16:54:42.967038+00:00",
        "meta_object_name": "TRANSPORTER-15 AA",
        "meta_object_id": "2025-276AA",
        "meta_epoch": "2025-12-19T00:11:38.885280",
        "meta_mean_motion": 15.17017224,
        "meta_eccentricity": 0.00035531,
        "meta_inclination": 97.4408,
        "meta_ra_of_asc_node": 64.6494,
        "meta_arg_of_pericenter": 267.0809,
        "meta_mean_anomaly": 93.0017,
        "meta_ephemeris_type": 0,
        "meta_classification_type": "U",
        "meta_norad_cat_id": 66690,
        "meta_element_set_no": 999,
        "meta_rev_at_epoch": 307,
        "meta_bstar": 0.0002351231,
        "meta_mean_motion_dot": 4.582e-05,
        "meta_mean_motion_ddot": 0,
        "tle_line1": "1 66690U 25276AA  25353.00808895  .00004582  00000+0  23512-3 0  9999",
        "tle_line2": "2 66690  97.4408  64.6494 0003553 267.0809  93.0017 15.17017224  3072"
      },
      "geometry": {
        "type": "Point",
        "coordinates": [
          -117.65341046308627,
          -21.73565688315443
        ]
      }
    },
    {
      "type": "Feature",
      "properties": {
        "norad_id": 66691,
        "name": "TRANSPORTER-15 AB",
        "group": "last-30-days",
        "lat": -30.024467702165442,
        "lon": -118.99021617775651,
        "alt_km": 518.7809426539625,
        "timestamp": "2025-12-19T16:54:42.967051+00:00",
        "meta_object_name": "TRANSPORTER-15 AB",
        "meta_object_id": "2025-276AB",
        "meta_epoch": "2025-12-19T03:19:31.076832",
        "meta_mean_motion": 15.17229676,
        "meta_eccentricity": 0.00036496,
        "meta_inclination": 97.4433,
        "meta_ra_of_asc_node": 64.7868,
        "meta_arg_of_pericenter": 267.2416,
        "meta_mean_anomaly": 92.8399,
        "meta_ephemeris_type": 0,
        "meta_classification_type": "U",
        "meta_norad_cat_id": 66691,
        "meta_element_set_no": 999,
        "meta_rev_at_epoch": 309,
        "meta_bstar": 0.00039510415,
        "meta_mean_motion_dot": 7.795e-05,
        "meta_mean_motion_ddot": 0,
        "tle_line1": "1 66691U 25276AB  25353.13855413  .00007795  00000+0  39510-3 0  9996",
        "tle_line2": "2 66691  97.4433  64.7868 0003649 267.2416  92.8399 15.17229676  3097"
      },
      "geometry": {
        "type": "Point",
        "coordinates": [
          -118.99021617775651,
          -30.024467702165442
        ]
      }
    },
    {
      "type": "Feature",
      "properties": {
        "norad_id": 66692,
        "name": "TRANSPORTER-15 AC",
        "group": "last-30-days",
        "lat": -45.507274976009285,
        "lon": -122.29403373021782,
        "alt_km": 520.0921071677058,
        "timestamp": "2025-12-19T16:54:42.967068+00:00",
        "meta_object_name": "TRANSPORTER-15 AC",
        "meta_object_id": "2025-276AC",
        "meta_epoch": "2025-12-18T03:31:00.719904",
        "meta_mean_motion": 15.1734807,
        "meta_eccentricity": 0.00018859,
        "meta_inclination": 97.4435,
        "meta_ra_of_asc_node": 63.8224,
        "meta_arg_of_pericenter": 298.055,
        "meta_mean_anomaly": 62.0493,
        "meta_ephemeris_type": 0,
        "meta_classification_type": "U",
        "meta_norad_cat_id": 66692,
        "meta_element_set_no": 999,
        "meta_rev_at_epoch": 294,
        "meta_bstar": 0.00028171998,
        "meta_mean_motion_dot": 5.556e-05,
        "meta_mean_motion_ddot": 0,
        "tle_line1": "1 66692U 25276AC  25352.14653611  .00005556  00000+0  28172-3 0  9998",
        "tle_line2": "2 66692  97.4435  63.8224 0001885 298.0550  62.0493 15.17348070  2944"
      },
      "geometry": {
        "type": "Point",
        "coordinates": [
          -122.29403373021782,
          -45.507274976009285
        ]
      }
    },
    {
      "type": "Feature",
      "properties": {
        "norad_id": 66693,
        "name": "TRANSPORTER-15 AD",
        "group": "last-30-days",
        "lat": -43.077578443995776,
        "lon": -121.68226178302073,
        "alt_km": 519.179251982092,
        "timestamp": "2025-12-19T16:54:42.967078+00:00",
        "meta_object_name": "TRANSPORTER-15 AD",
        "meta_object_id": "2025-276AD",
        "meta_epoch": "2025-12-18T03:31:52.892544",
        "meta_mean_motion": 15.17490576,
        "meta_eccentricity": 0.00033777,
        "meta_inclination": 97.4387,
        "meta_ra_of_asc_node": 63.8053,
        "meta_arg_of_pericenter": 297.6825,
        "meta_mean_anomaly": 62.4066,
        "meta_ephemeris_type": 0,
        "meta_classification_type": "U",
        "meta_norad_cat_id": 66693,
        "meta_element_set_no": 999,
        "meta_rev_at_epoch": 294,
        "meta_bstar": 0.00059940628,
        "meta_mean_motion_dot": 0.00011956,
        "meta_mean_motion_ddot": 0,
        "tle_line1": "1 66693U 25276AD  25352.14713996  .00011956  00000+0  59941-3 0  9991",
        "tle_line2": "2 66693  97.4387  63.8053 0003377 297.6825  62.4066 15.17490576  2948"
      },
      "geometry": {
        "type": "Point",
        "coordinates": [
          -121.68226178302073,
          -43.077578443995776
        ]
      }
    },
    {
      "type": "Feature",
      "properties": {
        "norad_id": 66694,
        "name": "TRANSPORTER-15 AE",
        "group": "last-30-days",
        "lat": -53.00242728395314,
        "lon": -124.63937859371316,
        "alt_km": 519.7902358442752,
        "timestamp": "2025-12-19T16:54:42.967089+00:00",
        "meta_object_name": "TRANSPORTER-15 AE",
        "meta_object_id": "2025-276AE",
        "meta_epoch": "2025-12-18T03:29:12.529824",
        "meta_mean_motion": 15.17491302,
        "meta_eccentricity": 0.00014365,
        "meta_inclination": 97.4431,
        "meta_ra_of_asc_node": 63.8198,
        "meta_arg_of_pericenter": 292.0507,
        "meta_mean_anomaly": 68.0574,
        "meta_ephemeris_type": 0,
        "meta_classification_type": "U",
        "meta_norad_cat_id": 66694,
        "meta_element_set_no": 999,
        "meta_rev_at_epoch": 294,
        "meta_bstar": 0.00035109913,
        "meta_mean_motion_dot": 6.971e-05,
        "meta_mean_motion_ddot": 0,
        "tle_line1": "1 66694U 25276AE  25352.14528391  .00006971  00000+0  35110-3 0  9998",
        "tle_line2": "2 66694  97.4431  63.8198 0001436 292.0507  68.0574 15.17491302  2943"
      },
      "geometry": {
        "type": "Point",
        "coordinates": [
          -124.63937859371316,
          -53.00242728395314
        ]
      }
    },
    {
      "type": "Feature",
      "properties": {
        "norad_id": 66695,
        "name": "TRANSPORTER-15 AF",
        "group": "last-30-days",
        "lat": -74.82081013445392,
        "lon": 94.16920811133036,
        "alt_km": 519.1547971476066,
        "timestamp": "2025-12-19T16:54:42.967099+00:00",
        "meta_object_name": "TRANSPORTER-15 AF",
        "meta_object_id": "2025-276AF",
        "meta_epoch": "2025-12-19T04:35:41.717184",
        "meta_mean_motion": 15.18191517,
        "meta_eccentricity": 0.00011228,
        "meta_inclination": 97.4414,
        "meta_ra_of_asc_node": 64.8641,
        "meta_arg_of_pericenter": 151.5223,
        "meta_mean_anomaly": 208.6073,
        "meta_ephemeris_type": 0,
        "meta_classification_type": "U",
        "meta_norad_cat_id": 66695,
        "meta_element_set_no": 999,
        "meta_rev_at_epoch": 310,
        "meta_bstar": 0.00035389261,
        "meta_mean_motion_dot": 7.17e-05,
        "meta_mean_motion_ddot": 0,
        "tle_line1": "1 66695U 25276AF  25353.19145506  .00007170  00000+0  35389-3 0  9998",
        "tle_line2": "2 66695  97.4414  64.8641 0001122 151.5223 208.6073 15.18191517  3106"
      },
      "geometry": {
        "type": "Point",
        "coordinates": [
          94.16920811133036,
          -74.82081013445392
        ]
      }
    },
    {
      "type": "Feature",
      "properties": {
        "norad_id": 66696,
        "name": "TRANSPORTER-15 AG",
        "group": "last-30-days",
        "lat": -41.496441530121594,
        "lon": -121.29945981043456,
        "alt_km": 519.736024032024,
        "timestamp": "2025-12-19T16:54:42.967109+00:00",
        "meta_object_name": "TRANSPORTER-15 AG",
        "meta_object_id": "2025-276AG",
        "meta_epoch": "2025-12-18T03:32:04.926336",
        "meta_mean_motion": 15.17343231,
        "meta_eccentricity": 0.00025772,
        "meta_inclination": 97.4402,
        "meta_ra_of_asc_node": 63.8094,
        "meta_arg_of_pericenter": 293.7336,
        "meta_mean_anomaly": 66.3627,
        "meta_ephemeris_type": 0,
        "meta_classification_type": "U",
        "meta_norad_cat_id": 66696,
        "meta_element_set_no": 999,
        "meta_rev_at_epoch": 294,
        "meta_bstar": 0.00037667077,
        "meta_mean_motion_dot": 7.452e-05,
        "meta_mean_motion_ddot": 0,
        "tle_line1": "1 66696U 25276AG  25352.14727924  .00007452  00000+0  37667-3 0  9997",
        "tle_line2": "2 66696  97.4402  63.8094 0002577 293.7336  66.3627 15.17343231  2940"
      },
      "geometry": {
        "type": "Point",
        "coordinates": [
          -121.29945981043456,
          -41.496441530121594
        ]
      }
    }
  ]
}